CORVUS BC4              
1 43767U 18099K   26068.65923737  .00005714  00000+0  33980-3 0  9990
2 43767  97.4206 114.5457 0008046 356.5821   3.5354 15.11615710397368
STARLINK-3132           
1 49457U 21104BB  26068.72485070 -.00000256  00000+0  19876-5 0  9991
2 49457  53.2176 218.9754 0001301  96.0867 264.0274 15.08833424238783
